METEOSAT-12 (MTG-I1)
1 54743U 22170C   26190.85397883  .00000004  00000+0  00000+0 0  9996
2 54743   0.7193  18.7296 0003857  82.9238 133.3248  1.00266777 13209
